[Satellite]
VERSION=1.1
NAME=HYDRA-T
NICKNAME=HYDRA-T
TLE1=1 62692U 25009CM  25178.18893812  .00029039  00000-0  98631-3 0  9997
TLE2=2 62692  97.4093 258.9781 0002437  62.5323 297.6165 15.30440645 24842
STATUS=0
